SPACEMOBILE-003         
1 61045U 24163A   26174.46079021  .00016513  00000+0  75217-3 0  9991
2 61045  52.9726 280.5934 0005711 130.8414 229.3076 15.20807143 98721
SPACEMOBILE-005         
1 61046U 24163B   26177.53282556  .00004934  00000+0  23477-3 0  9997
2 61046  52.9809 266.3955 0009487 139.4108 220.7596 15.20885934 99185
SPACEMOBILE-001         
1 61047U 24163C   26176.54580773  .00003451  00000+0  16869-3 0  9990
2 61047  52.9760 270.6585 0008562 133.9884 226.1817 15.20878493 99034
SPACEMOBILE-002         
1 61048U 24163D   26177.51560862  .00012555  00000+0  57457-3 0  9999
2 61048  52.9717 266.2432 0007857 140.5585 219.5983 15.20864215 99180
SPACEMOBILE-004         
1 61049U 24163E   26177.49770387  .00005389  00000+0  25548-3 0  9995
2 61049  52.9683 266.1095 0009430 169.6662 190.4528 15.20824478 99183
SPACEMOBILE-001 DEB     
1 62369U 24163F   26177.56086975  .00009484  00000+0  28511-3 0  9995
2 62369  52.9932 235.0851 0006849 186.5022 173.5891 15.35090036 87947
SPACEMOBILE-002 DEB     
1 62370U 24163G   26177.44362717  .00019358  00000+0  43788-3 0  9999
2 62370  52.9411 220.9757 0004951 215.1312 144.9365 15.43176997 99796
SPACEMOBILE-003 DEB     
1 62371U 24163H   26177.51499243  .00016579  00000+0  40541-3 0  9999
2 62371  52.9689 227.1798 0006459 172.7063 187.4035 15.40938365 93325
SPACEMOBILE-004 DEB     
1 62372U 24163J   26177.52474948  .00012982  00000+0  32665-3 0  9998
2 62372  52.9834 226.6604 0003554 190.0117 170.0816 15.40295977 96394
SPACEMOBILE-005 DEB     
1 62373U 24163K   26177.57420704  .00010177  00000+0  31233-3 0  9999
2 62373  52.9740 239.8630 0006915 167.6420 192.4751 15.34344663 99565
SPACEMOBILE-006         
1 67232U 25309A   26177.71780943  .00003599  00000+0  18696-3 0  9999
2 67232  52.9963 287.9775 0011305 155.7443 204.4085 15.18586179 28048
SPACEMOBILE-008         
1 69589U 26139A   26177.58830688  .00000549  00000+0  47893-4 0  9999
2 69589  52.9939 219.8849 0003948   8.7879 351.3181 15.12779102  1402
SPACEMOBILE-009         
1 69590U 26139B   26177.52288547  .00000516  00000+0  46165-4 0  9991
2 69590  52.9930 220.1854 0004129   2.6365 357.4647 15.12672517  1395
SPACEMOBILE-010         
1 69591U 26139C   26177.52391294  .00000520  00000+0  46542-4 0  9990
2 69591  52.9936 220.1939 0003982 352.2187   7.8741 15.12503858  1402
